GLOBALSTAR M084         
1 38040U 11080A   25195.55247097 -.00000099  00000+0  29202-4 0  9993
2 38040  52.0030 325.1658 0001060 103.6574 336.4324 12.62266984626409
GLOBALSTAR M080         
1 38041U 11080B   25195.78039905 -.00000090  00000+0  75383-4 0  9998
2 38041  52.0080 326.0737 0000670 146.6449  19.0025 12.62263903626272
GLOBALSTAR M082         
1 38042U 11080C   25195.95515609 -.00000082  00000+0  12154-3 0  9995
2 38042  52.0081 281.0063 0000478 173.0965 357.9706 12.62267213627009
GLOBALSTAR M092         
1 38043U 11080D   25196.24556060 -.00000086  00000+0  99691-4 0  9991
2 38043  52.0101  10.4984 0000861  92.4157  78.6694 12.62264886625703
GLOBALSTAR M090         
1 38044U 11080E   25196.18579501 -.00000083  00000+0  11856-3 0  9993
2 38044  52.0125 274.1489 0000324 129.6574 251.1599 12.62260860627194
GLOBALSTAR M086         
1 38045U 11080F   25195.60654213 -.00000078  00000+0  14509-3 0  9996
2 38045  51.9900 276.3901 0001105  51.9213  96.2642 12.62272511627027
GLOBALSTAR M097         
1 39072U 13005A   25195.36305890 -.00000113  00000+0 -53089-4 0  9991
2 39072  52.0018 191.7042 0000200   7.5078 352.5791 12.62265654574245
GLOBALSTAR M093         
1 39073U 13005B   25195.65344600 -.00000109  00000+0 -31527-4 0  9994
2 39073  51.9783 184.0792 0000260 348.8587  11.2274 12.62266062574230
